OBJECT_NAME,OBJECT_ID,EPOCH,MEAN_MOTION,ECCENTRICITY,INCLINATION,RA_OF_ASC_NODE,ARG_OF_PERICENTER,MEAN_ANOMALY,EPHEMERIS_TYPE,CLASSIFICATION_TYPE,NORAD_CAT_ID,ELEMENT_SET_NO,REV_AT_EPOCH,BSTAR,MEAN_MOTION_DOT,MEAN_MOTION_DDOT
STARLINK-3855,2022-049Z,2024-12-04T10:09:49.023648,15.08866213,.0001325,53.2181,315.3450,99.1685,260.9457,0,U,52474,999,14290,.27479E-3,.4091E-4,0
STARLINK-3882,2022-049AA,2024-12-04T07:01:42.911328,15.08840018,.0001424,53.2180,326.1420,86.8494,273.2661,0,U,52475,999,14274,.11974E-3,.1618E-4,0
STARLINK-3835,2022-049AB,2024-12-04T05:50:14.262432,15.08835005,.0001762,53.2187,316.3873,94.8755,265.2438,0,U,52476,999,14411,.60265E-4,.671E-5,0
STARLINK-3860,2022-049AC,2024-12-04T05:27:36.330912,15.08849887,.0001444,53.2194,316.2148,97.5990,262.5166,0,U,52477,999,14411,.32995E-4,.237E-5,0
STARLINK-3825,2022-049AD,2024-12-04T04:43:54.294816,15.08834932,.0001548,53.2154,326.3473,93.6316,266.4853,0,U,52478,999,14397,.70016E-4,.826E-5,0
STARLINK-3878,2022-049AE,2024-12-04T05:06:24.776064,15.08842242,.000134,53.2177,316.2793,99.0071,261.1073,0,U,52479,999,14411,.10251E-3,.1344E-4,0
STARLINK-3839,2022-049AF,2024-12-04T09:24:44.412480,15.08847056,.0001269,53.2175,325.4745,92.2258,267.8879,0,U,52480,999,14276,.1289E-3,.1765E-4,0
STARLINK-3842,2022-049AG,2024-12-04T11:05:56.865408,16.01213486,.0002396,53.2092,312.2865,96.1004,264.0301,0,U,52481,999,14419,.19565E-2,.1090682E-1,.6184E-3
STARLINK-3813,2022-049AH,2024-12-04T08:06:35.443872,15.08836282,.0000585,53.2169,315.7149,112.6974,247.4080,0,U,52482,999,14289,-.1414E-3,-.2537E-4,0
STARLINK-3875,2022-049AJ,2024-12-04T05:11:43.232640,15.08839867,.0001562,53.2205,316.2636,98.0056,262.1114,0,U,52483,999,14411,.33751E-4,.249E-5,0
STARLINK-3887,2022-049AK,2024-12-04T09:19:27.343488,15.08839254,.0001294,53.2185,325.4919,94.2556,265.8584,0,U,52484,999,14276,.10657E-3,.1409E-4,0
STARLINK-3913,2022-049AL,2024-12-04T05:01:06.809376,15.08842368,.0001665,53.2194,316.2954,91.1351,268.9832,0,U,52485,999,14287,.12498E-3,.1702E-4,0
STARLINK-3918,2022-049AM,2024-12-04T05:58:04.765728,15.08831489,.0001538,53.2185,326.1197,111.2360,248.8796,0,U,52486,999,14274,.12842E-3,.1756E-4,0
STARLINK-3902,2022-049AN,2024-12-04T08:27:47.979360,15.08834411,.0001875,53.2198,315.7547,124.0070,236.1100,0,U,52487,999,14413,.1418E-3,.1969E-4,0
STARLINK-3892,2022-049AP,2024-12-04T05:52:47.161920,15.08810778,.0002065,53.2186,326.1321,98.8399,261.2827,0,U,52488,999,14274,.55721E-3,.8584E-4,0
STARLINK-3923,2022-049AQ,2024-12-04T06:03:23.664672,15.08826631,.0001552,53.2179,326.1046,87.2601,272.8568,0,U,52489,999,14274,-.13921E-3,-.2502E-4,0
STARLINK-3914,2022-049AR,2024-12-04T07:50:42.197856,15.08835613,.0001661,53.2180,315.7685,83.0469,277.0712,0,U,52490,999,14289,.46442E-4,.451E-5,0
STARLINK-3908,2022-049AS,2024-12-04T08:01:17.754528,15.08840626,.0001471,53.2178,315.7342,87.7052,272.4108,0,U,52491,999,14289,.89237E-4,.1133E-4,0
STARLINK-3916,2022-049AT,2024-12-04T07:40:05.806560,15.08835247,.00017,53.2184,315.8016,88.9490,271.1697,0,U,52492,999,14289,.17022E-3,.2422E-4,0
STARLINK-3883,2022-049AU,2024-12-04T07:55:59.405952,15.08841770,.0001753,53.2181,315.7505,88.8590,271.2603,0,U,52493,999,14289,.15299E-3,.2148E-4,0
STARLINK-3857,2022-049AV,2024-12-04T07:24:12.056832,15.08836312,.0001493,53.2190,315.8533,97.7632,262.3529,0,U,52494,999,14289,.69213E-5,-.178E-5,0
STARLINK-3905,2022-049AW,2024-12-04T07:45:23.967648,15.08837739,.0002121,53.2199,315.7809,80.5621,279.5611,0,U,52495,999,14289,.76594E-4,.931E-5,0
STARLINK-3871,2022-049AX,2024-12-04T05:04:26.030496,15.08837814,.0001581,53.2181,311.2845,97.3090,262.8082,0,U,52496,999,14294,.74318E-4,.895E-5,0
STARLINK-3884,2022-049AY,2024-12-04T05:59:25.033056,15.08832223,.0001288,53.2165,316.1172,98.6905,261.4233,0,U,52497,999,14288,.96911E-4,.1254E-4,0
STARLINK-3925,2022-049AZ,2024-12-04T03:48:15.395328,15.08839266,.0001483,53.2198,306.5274,97.5918,262.5243,0,U,52498,999,14300,.74746E-4,.902E-5,0
STARLINK-3894,2022-049BA,2024-12-04T07:29:30.226560,15.08834237,.0001116,53.2186,315.8341,86.8265,273.2855,0,U,52499,999,14289,.6452E-4,.739E-5,0
STARLINK-3866,2022-049BB,2024-12-04T08:29:06.845280,15.08824243,.000167,53.2182,305.6495,95.8100,264.3083,0,U,52500,999,14303,.63893E-6,-.278E-5,0
STARLINK-3907,2022-049BC,2024-12-04T08:33:03.659040,15.08829515,.0001915,53.2193,315.4316,106.0247,254.0957,0,U,52501,999,14290,.83116E-4,.1035E-4,0
STARLINK-3912,2022-049BD,2024-12-04T05:13:02.294688,15.08855526,.0001462,53.2180,306.2912,106.4483,253.6670,0,U,52502,999,14301,-.39715E-4,-.92E-5,0
STARLINK-3861,2022-049BE,2024-12-04T04:57:08.093088,15.08825163,.0001159,53.2177,306.1945,97.4817,262.6307,0,U,52503,999,14301,.33381E-3,.5027E-4,0
