STARLINK-3855           
1 52474U 22049Z   24339.42348407  .00004091  00000+0  27479-3 0  9997
2 52474  53.2181 315.3450 0001325  99.1685 260.9457 15.08866213142903
STARLINK-3882           
1 52475U 22049AA  24339.29285777  .00001618  00000+0  11974-3 0  9998
2 52475  53.2180 326.1420 0001424  86.8494 273.2661 15.08840018142742
STARLINK-3835           
1 52476U 22049AB  24339.24322063  .00000671  00000+0  60265-4 0  9990
2 52476  53.2187 316.3873 0001762  94.8755 265.2438 15.08835005144113
STARLINK-3860           
1 52477U 22049AC  24339.22750383  .00000237  00000+0  32995-4 0  9996
2 52477  53.2194 316.2148 0001444  97.5990 262.5166 15.08849887144115
STARLINK-3825           
1 52478U 22049AD  24339.19715619  .00000826  00000+0  70016-4 0  9996
2 52478  53.2154 326.3473 0001548  93.6316 266.4853 15.08834932143973
STARLINK-3878           
1 52479U 22049AE  24339.21278676  .00001344  00000+0  10251-3 0  9997
2 52479  53.2177 316.2793 0001340  99.0071 261.1073 15.08842242144116
STARLINK-3839           
1 52480U 22049AF  24339.39218070  .00001765  00000+0  12890-3 0  9998
2 52480  53.2175 325.4745 0001269  92.2258 267.8879 15.08847056142761
STARLINK-3842           
1 52481U 22049AG  24339.46246372  .01090682  61840-3  19565-2 0  9998
2 52481  53.2092 312.2865 0002396  96.1004 264.0301 16.01213486144197
STARLINK-3813           
1 52482U 22049AH  24339.33791023 -.00002537  00000+0 -14140-3 0  9998
2 52482  53.2169 315.7149 0000585 112.6974 247.4080 15.08836282142899
STARLINK-3875           
1 52483U 22049AJ  24339.21647260  .00000249  00000+0  33751-4 0  9995
2 52483  53.2205 316.2636 0001562  98.0056 262.1114 15.08839867144113
STARLINK-3887           
1 52484U 22049AK  24339.38851092  .00001409  00000+0  10657-3 0  9992
2 52484  53.2185 325.4919 0001294  94.2556 265.8584 15.08839254142762
STARLINK-3913           
1 52485U 22049AL  24339.20910659  .00001702  00000+0  12498-3 0  9990
2 52485  53.2194 316.2954 0001665  91.1351 268.9832 15.08842368142873
STARLINK-3918           
1 52486U 22049AM  24339.24866627  .00001756  00000+0  12842-3 0  9992
2 52486  53.2185 326.1197 0001538 111.2360 248.8796 15.08831489142740
STARLINK-3902           
1 52487U 22049AN  24339.35263865  .00001969  00000+0  14180-3 0  9993
2 52487  53.2198 315.7547 0001875 124.0070 236.1100 15.08834411144134
STARLINK-3892           
1 52488U 22049AP  24339.24499030  .00008584  00000+0  55721-3 0  9993
2 52488  53.2186 326.1321 0002065  98.8399 261.2827 15.08810778142742
STARLINK-3923           
1 52489U 22049AQ  24339.25235723 -.00002502  00000+0 -13921-3 0  9994
2 52489  53.2179 326.1046 0001552  87.2601 272.8568 15.08826631142742
STARLINK-3914           
1 52490U 22049AR  24339.32687729  .00000451  00000+0  46442-4 0  9995
2 52490  53.2180 315.7685 0001661  83.0469 277.0712 15.08835613142890
STARLINK-3908           
1 52491U 22049AS  24339.33423327  .00001133  00000+0  89237-4 0  9996
2 52491  53.2178 315.7342 0001471  87.7052 272.4108 15.08840626142894
STARLINK-3916           
1 52492U 22049AT  24339.31951165  .00002422  00000+0  17022-3 0  9995
2 52492  53.2184 315.8016 0001700  88.9490 271.1697 15.08835247142897
STARLINK-3883           
1 52493U 22049AU  24339.33054868  .00002148  00000+0  15299-3 0  9991
2 52493  53.2181 315.7505 0001753  88.8590 271.2603 15.08841770142891
STARLINK-3857           
1 52494U 22049AV  24339.30847288 -.00000178  00000+0  69213-5 0  9994
2 52494  53.2190 315.8533 0001493  97.7632 262.3529 15.08836312142895
STARLINK-3905           
1 52495U 22049AW  24339.32319407  .00000931  00000+0  76594-4 0  9999
2 52495  53.2199 315.7809 0002121  80.5621 279.5611 15.08837739142893
STARLINK-3871           
1 52496U 22049AX  24339.21141239  .00000895  00000+0  74318-4 0  9995
2 52496  53.2181 311.2845 0001581  97.3090 262.8082 15.08837814142948
STARLINK-3884           
1 52497U 22049AY  24339.24959529  .00001254  00000+0  96911-4 0  9991
2 52497  53.2165 316.1172 0001288  98.6905 261.4233 15.08832223142886
STARLINK-3925           
1 52498U 22049AZ  24339.15851152  .00000902  00000+0  74746-4 0  9996
2 52498  53.2198 306.5274 0001483  97.5918 262.5243 15.08839266143000
STARLINK-3894           
1 52499U 22049BA  24339.31215540  .00000739  00000+0  64520-4 0  9997
2 52499  53.2186 315.8341 0001116  86.8265 273.2855 15.08834237142892
STARLINK-3866           
1 52500U 22049BB  24339.35355145 -.00000278  00000+0  63893-6 0  9993
2 52500  53.2182 305.6495 0001670  95.8100 264.3083 15.08824243143038
STARLINK-3907           
1 52501U 22049BC  24339.35629235  .00001035  00000+0  83116-4 0  9997
2 52501  53.2193 315.4316 0001915 106.0247 254.0957 15.08829515142909
STARLINK-3912           
1 52502U 22049BD  24339.21738767 -.00000920  00000+0 -39715-4 0  9994
2 52502  53.2180 306.2912 0001462 106.4483 253.6670 15.08855526143010
STARLINK-3861           
1 52503U 22049BE  24339.20634367  .00005027  00000+0  33381-3 0  9998
2 52503  53.2177 306.1945 0001159  97.4817 262.6307 15.08825163143016
